{"type": "FeatureCollection", "features": [ {"type": "Feature", "properties": {"norad_id": 41836, "name": "HIMAWARI-9", "group": "weather", "lat": 0.020054555205128485, "lon": 97.14956208017611, "alt_km": 35790.567461279396, "timestamp": "2025-12-13T15:35:11.758620+00:00", "meta": {"OBJECT_NAME": "HIMAWARI-9", "OBJECT_ID": "2016-064A", "EPOCH": "2025-12-12T22:42:33.992928", "MEAN_MOTION": 1.00273884, "ECCENTRICITY": 0.00011859, "INCLINATION": 0.0371, "RA_OF_ASC_NODE": 95.8596, "ARG_OF_PERICENTER": 177.2098, "MEAN_ANOMALY": 290.2335, "EPHEMERIS_TYPE": 0, "CLASSIFICATION_TYPE": "U", "NORAD_CAT_ID": 41836, "ELEMENT_SET_NO": 999, "REV_AT_EPOCH": 3334, "BSTAR": 0, "MEAN_MOTION_DOT": -2.62e-06, "MEAN_MOTION_DDOT": 0}, "tle": {"line1": "1 41836U 16064A   25346.94622677 -.00000262  00000+0  00000+0 0  9991", "line2": "2 41836   0.0371  95.8596 0001185 177.2098 290.2335  1.00273884 33346"}}, "geometry": {"type": "Point", "coordinates": [97.14956208017611, 0.020054555205128485]}}, {"type": "Feature", "properties": {"norad_id": 41866, "name": "GOES 16", "group": "weather", "lat": 0.041337935789823164, "lon": -148.3346497984367, "alt_km": 35777.56034658495, "timestamp": "2025-12-13T15:35:11.758659+00:00", "meta": {"OBJECT_NAME": "GOES 16", "OBJECT_ID": "2016-071A", "EPOCH": "2025-12-12T23:15:15.859584", "MEAN_MOTION": 1.00271546, "ECCENTRICITY": 0.00032331, "INCLINATION": 0.0639, "RA_OF_ASC_NODE": 105.1798, "ARG_OF_PERICENTER": 157.6818, "MEAN_ANOMALY": 63.1874, "EPHEMERIS_TYPE": 0, "CLASSIFICATION_TYPE": "U", "NORAD_CAT_ID": 41866, "ELEMENT_SET_NO": 999, "REV_AT_EPOCH": 3323, "BSTAR": 0, "MEAN_MOTION_DOT": -7.8e-07, "MEAN_MOTION_DDOT": 0}, "tle": {"line1": "1 41866U 16071A   25346.96893356 -.00000078  00000+0  00000+0 0  9993", "line2": "2 41866   0.0639 105.1798 0003233 157.6818  63.1874  1.00271546 33239"}}, "geometry": {"type": "Point", "coordinates": [-148.3346497984367, 0.041337935789823164]}}, {"type": "Feature", "properties": {"norad_id": 41882, "name": "FENGYUN 4A", "group": "weather", "lat": -0.051921286572984206, "lon": 80.16601194207178, "alt_km": 35804.18706782596, "timestamp": "2025-12-13T15:35:11.758674+00:00", "meta": {"OBJECT_NAME": "FENGYUN 4A", "OBJECT_ID": "2016-077A", "EPOCH": "2025-12-12T22:37:46.187616", "MEAN_MOTION": 1.00269597, "ECCENTRICITY": 0.00048299, "INCLINATION": 1.85, "RA_OF_ASC_NODE": 82.3882, "ARG_OF_PERICENTER": 145.9325, "MEAN_ANOMALY": 316.8328, "EPHEMERIS_TYPE": 0, "CLASSIFICATION_TYPE": "U", "NORAD_CAT_ID": 41882, "ELEMENT_SET_NO": 999, "REV_AT_EPOCH": 3306, "BSTAR": 0, "MEAN_MOTION_DOT": -3.44e-06, "MEAN_MOTION_DDOT": 0}, "tle": {"line1": "1 41882U 16077A   25346.94289569 -.00000344  00000+0  00000+0 0  9996", "line2": "2 41882   1.8500  82.3882 0004829 145.9325 316.8328  1.00269597 33064"}}, "geometry": {"type": "Point", "coordinates": [80.16601194207178, -0.051921286572984206]}}, {"type": "Feature", "properties": {"norad_id": 41884, "name": "CYGFM05", "group": "weather", "lat": 21.21614095911706, "lon": 74.94131735961173, "alt_km": 425.38104941380243, "timestamp": "2025-12-13T15:35:11.758685+00:00", "meta": {"OBJECT_NAME": "CYGFM05", "OBJECT_ID": "2016-078A", "EPOCH": "2025-12-12T20:50:25.759680", "MEAN_MOTION": 15.47640667, "ECCENTRICITY": 0.00101119, "INCLINATION": 34.9605, "RA_OF_ASC_NODE": 46.2904, "ARG_OF_PERICENTER": 184.7498, "MEAN_ANOMALY": 175.3129, "EPHEMERIS_TYPE": 0, "CLASSIFICATION_TYPE": "U", "NORAD_CAT_ID": 41884, "ELEMENT_SET_NO": 999, "REV_AT_EPOCH": 49978, "BSTAR": 0.00048911259, "MEAN_MOTION_DOT": 0.00026112, "MEAN_MOTION_DDOT": 0}, "tle": {"line1": "1 41884U 16078A   25346.86835370  .00026112  00000+0  48911-3 0  9994", "line2": "2 41884  34.9605  46.2904 0010111 184.7498 175.3129 15.47640667499785"}}, "geometry": {"type": "Point", "coordinates": [74.94131735961173, 21.21614095911706]}}, {"type": "Feature", "properties": {"norad_id": 41885, "name": "CYGFM04", "group": "weather", "lat": -33.048805454585896, "lon": -52.82140401026333, "alt_km": 415.15423660436863, "timestamp": "2025-12-13T15:35:11.758696+00:00", "meta": {"OBJECT_NAME": "CYGFM04", "OBJECT_ID": "2016-078B", "EPOCH": "2025-12-12T12:04:48.995904", "MEAN_MOTION": 15.50339744, "ECCENTRICITY": 0.0009449, "INCLINATION": 34.9355, "RA_OF_ASC_NODE": 23.459, "ARG_OF_PERICENTER": 208.6589, "MEAN_ANOMALY": 151.3614, "EPHEMERIS_TYPE": 0, "CLASSIFICATION_TYPE": "U", "NORAD_CAT_ID": 41885, "ELEMENT_SET_NO": 999, "REV_AT_EPOCH": 49990, "BSTAR": 0.00049905831, "MEAN_MOTION_DOT": 0.00029314, "MEAN_MOTION_DDOT": 0}, "tle": {"line1": "1 41885U 16078B   25346.50334486  .00029314  00000+0  49906-3 0  9990", "line2": "2 41885  34.9355  23.4590 0009449 208.6589 151.3614 15.50339744499907"}}, "geometry": {"type": "Point", "coordinates": [-52.82140401026333, -33.048805454585896]}}, {"type": "Feature", "properties": {"norad_id": 41886, "name": "CYGFM02", "group": "weather", "lat": -27.874366670608758, "lon": -34.986237591085796, "alt_km": 412.6768328799417, "timestamp": "2025-12-13T15:35:11.758707+00:00", "meta": {"OBJECT_NAME": "CYGFM02", "OBJECT_ID": "2016-078C", "EPOCH": "2025-12-12T12:01:45.818400", "MEAN_MOTION": 15.51717368, "ECCENTRICITY": 0.00111023, "INCLINATION": 34.9444, "RA_OF_ASC_NODE": 21.8021, "ARG_OF_PERICENTER": 208.1601, "MEAN_ANOMALY": 151.8522, "EPHEMERIS_TYPE": 0, "CLASSIFICATION_TYPE": "U", "NORAD_CAT_ID": 41886, "ELEMENT_SET_NO": 999, "REV_AT_EPOCH": 50003, "BSTAR": 0.00050154244, "MEAN_MOTION_DOT": 0.00030979, "MEAN_MOTION_DDOT": 0}, "tle": {"line1": "1 41886U 16078C   25346.50122475  .00030979  00000+0  50154-3 0  9990", "line2": "2 41886  34.9444  21.8021 0011102 208.1601 151.8522 15.51717368500030"}}, "geometry": {"type": "Point", "coordinates": [-34.986237591085796, -27.874366670608758]}}, {"type": "Feature", "properties": {"norad_id": 41887, "name": "CYGFM01", "group": "weather", "lat": 34.78976219948283, "lon": 127.8075964106144, "alt_km": 416.3513246797329, "timestamp": "2025-12-13T15:35:11.758717+00:00", "meta": {"OBJECT_NAME": "CYGFM01", "OBJECT_ID": "2016-078D", "EPOCH": "2025-12-12T14:27:32.810976", "MEAN_MOTION": 15.48206024, "ECCENTRICITY": 0.00096309, "INCLINATION": 34.9433, "RA_OF_ASC_NODE": 50.3785, "ARG_OF_PERICENTER": 173.9966, "MEAN_ANOMALY": 186.0873, "EPHEMERIS_TYPE": 0, "CLASSIFICATION_TYPE": "U", "NORAD_CAT_ID": 41887, "ELEMENT_SET_NO": 999, "REV_AT_EPOCH": 49968, "BSTAR": 0.00048455883, "MEAN_MOTION_DOT": 0.00026383, "MEAN_MOTION_DDOT": 0}, "tle": {"line1": "1 41887U 16078D   25346.60246309  .00026383  00000+0  48456-3 0  9991", "line2": "2 41887  34.9433  50.3785 0009630 173.9966 186.0873 15.48206024499684"}}, "geometry": {"type": "Point", "coordinates": [127.8075964106144, 34.78976219948283]}}, {"type": "Feature", "properties": {"norad_id": 41888, "name": "CYGFM08", "group": "weather", "lat": 22.66006174954727, "lon": 169.79707369952098, "alt_km": 411.15703683050197, "timestamp": "2025-12-13T15:35:11.758728+00:00", "meta": {"OBJECT_NAME": "CYGFM08", "OBJECT_ID": "2016-078E", "EPOCH": "2025-12-12T12:42:25.890912", "MEAN_MOTION": 15.49405838, "ECCENTRICITY": 0.00115306, "INCLINATION": 34.9464, "RA_OF_ASC_NODE": 33.8502, "ARG_OF_PERICENTER": 197.3189, "MEAN_ANOMALY": 162.7141, "EPHEMERIS_TYPE": 0, "CLASSIFICATION_TYPE": "U", "NORAD_CAT_ID": 41888, "ELEMENT_SET_NO": 999, "REV_AT_EPOCH": 49990, "BSTAR": 0.00049707075, "MEAN_MOTION_DOT": 0.00028264, "MEAN_MOTION_DDOT": 0}, "tle": {"line1": "1 41888U 16078E   25346.52946633  .00028264  00000+0  49707-3 0  9990", "line2": "2 41888  34.9464  33.8502 0011530 197.3189 162.7141 15.49405838499900"}}, "geometry": {"type": "Point", "coordinates": [169.79707369952098, 22.66006174954727]}}, {"type": "Feature", "properties": {"norad_id": 41890, "name": "CYGFM07", "group": "weather", "lat": 27.08093947881113, "lon": 148.42300703932102, "alt_km": 412.2349216377215, "timestamp": "2025-12-13T15:35:11.758739+00:00", "meta": {"OBJECT_NAME": "CYGFM07", "OBJECT_ID": "2016-078G", "EPOCH": "2025-12-12T18:56:41.408160", "MEAN_MOTION": 15.50001418, "ECCENTRICITY": 0.00098582, "INCLINATION": 34.9485, "RA_OF_ASC_NODE": 21.1284, "ARG_OF_PERICENTER": 216.412, "MEAN_ANOMALY": 143.5933, "EPHEMERIS_TYPE": 0, "CLASSIFICATION_TYPE": "U", "NORAD_CAT_ID": 41890, "ELEMENT_SET_NO": 999, "REV_AT_EPOCH": 49996, "BSTAR": 0.00047938759, "MEAN_MOTION_DOT": 0.00027818, "MEAN_MOTION_DDOT": 0}, "tle": {"line1": "1 41890U 16078G   25346.78936815  .00027818  00000+0  47939-3 0  9991", "line2": "2 41890  34.9485  21.1284 0009858 216.4120 143.5933 15.50001418499961"}}, "geometry": {"type": "Point", "coordinates": [148.42300703932102, 27.08093947881113]}}, {"type": "Feature", "properties": {"norad_id": 41891, "name": "CYGFM03", "group": "weather", "lat": -20.71791378791946, "lon": -15.389968627986335, "alt_km": 420.10381686296023, "timestamp": "2025-12-13T15:35:11.758751+00:00", "meta": {"OBJECT_NAME": "CYGFM03", "OBJECT_ID": "2016-078H", "EPOCH": "2025-12-12T19:39:17.081280", "MEAN_MOTION": 15.49902051, "ECCENTRICITY": 0.0009306, "INCLINATION": 34.9439, "RA_OF_ASC_NODE": 22.8525, "ARG_OF_PERICENTER": 204.5455, "MEAN_ANOMALY": 155.4825, "EPHEMERIS_TYPE": 0, "CLASSIFICATION_TYPE": "U", "NORAD_CAT_ID": 41891, "ELEMENT_SET_NO": 999, "REV_AT_EPOCH": 49994, "BSTAR": 0.00048287041, "MEAN_MOTION_DOT": 0.00027916, "MEAN_MOTION_DDOT": 0}, "tle": {"line1": "1 41891U 16078H   25346.81894770  .00027916  00000+0  48287-3 0  9995", "line2": "2 41891  34.9439  22.8525 0009306 204.5455 155.4825 15.49902051499945"}}, "geometry": {"type": "Point", "coordinates": [-15.389968627986335, -20.71791378791946]}}]}